     2.10           GLONASS NAV DATA                        RINEX VERSION / TYPE
SPIDER V4,0,0,3554                      2015 03 24 00:18    PGM / RUN BY / DATE 
  2015     2    27   -1.164153218269e-008                    CORR TO SYSTEM TIME 
    16                                                      LEAP SECONDS        
                                                            END OF HEADER       
20 15 02 27 00 15  0.0-1.605618745089D-04-1.818989403546D-12 0.000000000000D+00
    1.250476806641D+04-1.271154403687D+00 9.313225746155D-10 0.000000000000D+00
   -3.076806152344D+03 2.734644889832D+00-1.862645149231D-09 2.000000000000D+00
    2.201976416016D+04 1.109560012817D+00-1.862645149231D-09 0.000000000000D+00
11 15 02 27 00 15  0.0 1.795589923859D-06 0.000000000000D+00 4.200000000000D+02
    5.438432128906D+03 3.029161453247D+00 9.313225746155D-10 0.000000000000D+00
   -1.102238134766D+04-4.638938903809D-01-2.793967723846D-09 0.000000000000D+00
    2.236420263672D+04-9.568691253662D-01-9.313225746155D-10 0.000000000000D+00
 4 15 02 27 00 45  0.0 1.111188903451D-04 9.094947017729D-13 1.800000000000D+03
    2.362725585938D+03-1.878136634827D+00-0.000000000000D+00 0.000000000000D+00
    1.574446679688D+04-1.979990005493D+00 0.000000000000D+00 6.000000000000D+00
    1.994067968750D+04 1.785786628723D+00-2.793967723846D-09 0.000000000000D+00
11 15 02 27 00 45  0.0 1.797452569008D-06 9.094947017729D-13 1.800000000000D+03
    1.053280078125D+04 2.587186813354D+00 0.000000000000D+00 0.000000000000D+00
   -1.220030029297D+04-8.190212249756D-01-2.793967723846D-09 0.000000000000D+00
    1.980116308594D+04-1.872286796570D+00-0.000000000000D+00 0.000000000000D+00
 5 15 02 27 00 45  0.0 2.946704626083D-06 0.000000000000D+00 1.800000000000D+03
    1.538508251953D+04-5.151290893555D-01-0.000000000000D+00 0.000000000000D+00
    1.936370751953D+04-6.934452056885D-01 9.313225746155D-10 1.000000000000D+00
    6.219177246094D+03 3.426035881042D+00-9.313225746155D-10 0.000000000000D+00
 9 15 02 27 00 45  0.0-3.530643880367D-06 9.094947017729D-13 1.800000000000D+03
    2.283905957031D+04-1.559058189392D+00-0.000000000000D+00 0.000000000000D+00
   -4.671655273438D+02 2.282199859619D-01 0.000000000000D+00-2.000000000000D+00
   -1.148620996094D+04-3.104951858521D+00 9.313225746155D-10 0.000000000000D+00
10 15 02 27 00 45  0.0 9.077601134777D-06 0.000000000000D+00 1.800000000000D+03
    2.334398046875D+04 6.698417663574D-01 0.000000000000D+00 0.000000000000D+00
   -8.601730957031D+03-4.123754501343D-01-1.862645149231D-09-7.000000000000D+00
    5.453907226563D+03-3.511247634888D+00 0.000000000000D+00 0.000000000000D+00
19 15 02 27 00 45  0.0-1.193182542920D-04-0.000000000000D+00 1.800000000000D+03
    2.680647460938D+03-5.181989669800D-01-0.000000000000D+00 0.000000000000D+00
    1.888775048828D+04 2.264906883240D+00 0.000000000000D+00 3.000000000000D+00
    1.693935937500D+04-2.444233894348D+00-2.793967723846D-09 0.000000000000D+00
20 15 02 27 00 45  0.0-1.605655997992D-04-1.818989403546D-12 1.800000000000D+03
    1.053527783203D+04-8.926715850830D-01 0.000000000000D+00 0.000000000000D+00
    2.160748046875D+03 3.038833618164D+00-1.862645149231D-09 2.000000000000D+00
    2.314046923828D+04 1.277580261230D-01-1.862645149231D-09 0.000000000000D+00
21 15 02 27 00 45  0.0 5.261972546577D-07 1.818989403546D-12 1.890000000000D+03
    1.229238427734D+04-7.368669509888D-01 0.000000000000D+00 0.000000000000D+00
   -1.472374218750D+04 2.186117172241D+00-2.793967723846D-09 4.000000000000D+00
    1.683706005859D+04 2.448206901550D+00-0.000000000000D+00 1.700000000000D+01
 6 15 02 27 00 45  0.0 6.325822323561D-05 9.094947017729D-13 3.090000000000D+03
    1.961193945313D+04 1.238675117493D+00-0.000000000000D+00 0.000000000000D+00
    1.125058496094D+04 1.049133300781D+00 9.313225746155D-10-4.000000000000D+00
   -1.185815429688D+04 3.045879364014D+00 0.000000000000D+00 0.000000000000D+00
 4 15 02 27 01 15  0.0 1.111216843128D-04 9.094947017729D-13 3.600000000000D+03
   -1.518001464844D+03-2.407767295837D+00 0.000000000000D+00 0.000000000000D+00
    1.222861718750D+04-1.883527755737D+00-0.000000000000D+00 6.000000000000D+00
    2.234360498047D+04 8.668174743652D-01-2.793967723846D-09 0.000000000000D+00
 6 15 02 27 01 15  0.0 6.326008588076D-05 9.094947017729D-13 3.600000000000D+03
    2.142264453125D+04 7.337741851807D-01-0.000000000000D+00 0.000000000000D+00
    1.252588427734D+04 3.828487396240D-01 9.313225746155D-10-4.000000000000D+00
   -5.988936523438D+03 3.433252334595D+00-0.000000000000D+00 0.000000000000D+00
 5 15 02 27 01 15  0.0 2.947635948658D-06 0.000000000000D+00 3.600000000000D+03
    1.380397119141D+04-1.250184059143D+00-0.000000000000D+00 0.000000000000D+00
    1.772151953125D+04-1.089737892151D+00 0.000000000000D+00 1.000000000000D+00
    1.206560839844D+04 3.027754783630D+00-1.862645149231D-09 0.000000000000D+00
10 15 02 27 01 15  0.0 9.078532457352D-06 0.000000000000D+00 3.600000000000D+03
    2.374701611328D+04-2.135572433472D-01-0.000000000000D+00 0.000000000000D+00
   -9.162912597656D+03-1.692380905151D-01-9.313225746155D-10-7.000000000000D+00
   -9.961245117188D+02-3.608697891235D+00 9.313225746155D-10 0.000000000000D+00
11 15 02 27 01 15  0.0 1.799315214157D-06 9.094947017729D-13 3.600000000000D+03
    1.461741845703D+04 1.921498298645D+00 0.000000000000D+00 0.000000000000D+00
   -1.385315429688D+04-9.791250228882D-01-2.793967723846D-09 0.000000000000D+00
    1.571145654297D+04-2.642277717590D+00-0.000000000000D+00 0.000000000000D+00
19 15 02 27 01 15  0.0-1.193201169372D-04-0.000000000000D+00 3.600000000000D+03
    2.164712402344D+03-7.951068878174D-02-0.000000000000D+00 0.000000000000D+00
    2.243924609375D+04 1.641955375671D+00 9.313225746155D-10 3.000000000000D+00
    1.194198535156D+04-3.072388648987D+00-1.862645149231D-09 0.000000000000D+00
20 15 02 27 01 15  0.0-1.605683937669D-04-9.094947017729D-13 3.600000000000D+03
    9.348840332031D+03-4.185314178467D-01 0.000000000000D+00 0.000000000000D+00
    7.684257324219D+03 3.046643257141D+00-0.000000000000D+00 2.000000000000D+00
    2.247434179688D+04-8.629531860352D-01-2.793967723846D-09 0.000000000000D+00
21 15 02 27 01 15  0.0 5.289912223816D-07 1.818989403546D-12 3.600000000000D+03
    1.117379394531D+04-4.740695953369D-01 0.000000000000D+00 0.000000000000D+00
   -1.022908642578D+04 2.771212577820D+00-2.793967723846D-09 4.000000000000D+00
    2.053714208984D+04 1.636321067810D+00-9.313225746155D-10 1.700000000000D+01
11 15 02 27 01 45  0.0 1.802109181881D-06 9.094947017729D-13 5.400000000000D+03
    1.737519628906D+04 1.131360054016D+00-0.000000000000D+00 0.000000000000D+00
   -1.557388037109D+04-8.885869979858D-01-1.862645149231D-09 0.000000000000D+00
    1.041177636719D+04-3.208109855652D+00 0.000000000000D+00 0.000000000000D+00
 6 15 02 27 01 45  0.0 6.326194852591D-05 0.000000000000D+00 5.400000000000D+03
    2.213122314453D+04 2.623844146729D-02-0.000000000000D+00 0.000000000000D+00
    1.271139697266D+04-1.467542648315D-01 9.313225746155D-10-4.000000000000D+00
    3.422841796875D+02 3.555858612061D+00-9.313225746155D-10 0.000000000000D+00
 5 15 02 27 01 45  0.0 2.948567271233D-06 0.000000000000D+00 5.400000000000D+03
    1.088757519531D+04-1.979859352112D+00-0.000000000000D+00 0.000000000000D+00
    1.559718750000D+04-1.226662635803D+00 0.000000000000D+00 1.000000000000D+00
    1.697803955078D+04 2.394997596741D+00-2.793967723846D-09 0.000000000000D+00
10 15 02 27 01 45  0.0 9.079463779926D-06 0.000000000000D+00 5.400000000000D+03
    2.264042724609D+04-9.888706207275D-01-0.000000000000D+00 0.000000000000D+00
   -9.072686523438D+03 3.029575347900D-01-0.000000000000D+00-7.000000000000D+00
   -7.368858398438D+03-3.425980567932D+00 9.313225746155D-10 0.000000000000D+00
20 15 02 27 01 45  0.0-1.605730503798D-04-9.094947017729D-13 5.400000000000D+03
    9.020741699219D+03 4.271221160889D-02-0.000000000000D+00 0.000000000000D+00
    1.294327832031D+04 2.747056961060D+00 0.000000000000D+00 2.000000000000D+00
    2.007434521484D+04-1.786330223083D+00-2.793967723846D-09 0.000000000000D+00
21 15 02 27 01 45  0.0 5.327165126801D-07 1.818989403546D-12 5.400000000000D+03
    1.067577539063D+04-6.209754943848D-02-0.000000000000D+00 0.000000000000D+00
   -4.902146484375D+03 3.099654197693D+00-1.862645149231D-09 4.000000000000D+00
    2.265169970703D+04 6.979055404663D-01-1.862645149231D-09 1.700000000000D+01
22 15 02 27 01 45  0.0 1.543741673231D-04 0.000000000000D+00 5.820000000000D+03
    6.264974609375D+03-1.619281768799D-01-0.000000000000D+00 0.000000000000D+00
   -2.086989306641D+04 1.804569244385D+00-3.725290298462D-09-3.000000000000D+00
    1.315231933594D+04 2.955090522766D+00 0.000000000000D+00 0.000000000000D+00
12 15 02 27 01 45  0.0-4.062429070473D-06 0.000000000000D+00 7.080000000000D+03
    1.324692382813D+03 2.612257957458D+00 0.000000000000D+00 0.000000000000D+00
   -1.259408593750D+04-1.549344062805D+00-2.793967723846D-09-1.000000000000D+00
    2.208750390625D+04-1.052586555481D+00-9.313225746155D-10 0.000000000000D+00
21 15 02 27 02 15  0.0 5.355104804039D-07 1.818989403546D-12 7.200000000000D+03
    1.098062011719D+04 4.001884460449D-01-0.000000000000D+00 0.000000000000D+00
    7.469633789063D+02 3.125138282776D+00-9.313225746155D-10 4.000000000000D+00
    2.301697167969D+04-2.947511672974D-01-1.862645149231D-09 1.700000000000D+01
 6 15 02 27 02 15  0.0 6.326381117105D-05 0.000000000000D+00 7.200000000000D+03
    2.144817138672D+04-7.954530715942D-01-0.000000000000D+00 0.000000000000D+00
    1.212463623047D+04-4.658975601196D-01 9.313225746155D-10-4.000000000000D+00
    6.647037109375D+03 3.403984069824D+00-9.313225746155D-10 0.000000000000D+00
